NORAD_CAT_ID,OBJECT_NAME,OBJECT_TYPE,EPOCH,MEAN_MOTION,ECCENTRICITY,INCLINATION,RA_OF_ASC_NODE,ARG_OF_PERICENTER,MEAN_ANOMALY,BSTAR,MEAN_MOTION_DOT,MEAN_MOTION_DDOT,TLE_LINE0,TLE_LINE1,TLE_LINE2,SEMIMAJOR_AXIS,PERIOD,APOGEE,PERIGEE,DECAYED
53781.0,STARLINK-4462,PAYLOAD,2022-11-02 14:00:01,15.50232683,0.0001569,53.2175,7.955,38.6767,352.5059,-0.0083848,-0.00455298,0.0,0 STARLINK-4462,1 53781U 22111J   22306.58334491 -.00455298  00000-0 -83848-2 0  9999,2 53781  53.2175   7.9550 0001569  38.6767 352.5059 15.50232683  8195,6794.183000000001,92.889,417.114,414.982,0.0
53781.0,STARLINK-4462,PAYLOAD,2022-11-02 22:00:00,15.49884899,0.000156,53.2176,6.3598,44.9081,47.4048,1.8848e-05,6.18e-06,0.0,0 STARLINK-4462,1 53781U 22111J   22306.91667824  .00000618  00000-0  18848-4 0  9995,2 53781  53.2176   6.3598 0001560  44.9081  47.4048 15.49884899  8245,6795.199000000001,92.91,418.125,416.004,0.0
53781.0,STARLINK-4462,PAYLOAD,2022-11-03 08:00:01,15.499189,0.0001649,53.2158,4.3705,35.8516,222.6703,-0.00011548,-7.008e-05,0.0,0 STARLINK-4462,1 53781U 22111J   22307.33334491 -.00007008  00000-0 -11548-3 0  9994,2 53781  53.2158   4.3705 0001649  35.8516 222.6703 15.49918900  8306,6795.1,92.908,418.086,415.845,0.0
53781.0,STARLINK-4462,PAYLOAD,2022-11-03 14:00:01,15.49920579,0.0001874,53.2157,3.1767,34.7766,179.4616,-0.0005357,-0.00030776,0.0,0 STARLINK-4462,1 53781U 22111J   22307.58334491 -.00030776  00000-0 -53570-3 0  9990,2 53781  53.2157   3.1767 0001874  34.7766 179.4616 15.49920579  1305,6795.095,92.908,418.234,415.687,0.0
53781.0,STARLINK-4462,PAYLOAD,2022-11-03 22:00:00,15.49875244,0.0001826,53.2154,1.5819,42.8625,232.3266,0.00015184,8.172e-05,0.0,0 STARLINK-4462,1 53781U 22111J   22307.91667824  .00008172  00000-0  15184-3 0  9998,2 53781  53.2154   1.5819 0001826  42.8625 232.3266 15.49875244  1301,6795.228,92.911,418.334,415.852,0.0
53781.0,STARLINK-4462,PAYLOAD,2022-11-04 06:00:00,15.49897975,0.0001929,53.2158,359.9885,48.5258,287.5671,-0.0013367,-0.00075627,0.0,0 STARLINK-4462,1 53781U 22111J   22308.25001157 -.00075627  00000-0 -13367-2 0  9998,2 53781  53.2158 359.9885 0001929  48.5258 287.5671 15.49897975  8446,6795.161,92.909,418.337,415.715,0.0
53781.0,STARLINK-4462,PAYLOAD,2022-11-04 14:00:01,15.49985548,0.0002088,53.2163,358.3971,38.6145,358.3528,-0.0089392999999999,-0.0047971,0.0,0 STARLINK-4462,1 53781U 22111J   22308.58334491 -.00479710  00000-0 -89393-2 0  9997,2 53781  53.2163 358.3971 0002088  38.6145 358.3528 15.49985548  1303,6794.905,92.904,418.189,415.352,0.0
53781.0,STARLINK-4462,PAYLOAD,2022-11-04 22:00:01,15.49740878,0.0002022,53.2172,356.8015,38.0856,59.7842,-0.017041,-0.00876212,0.0,0 STARLINK-4462,1 53781U 22111J   22308.91668981 -.00876212  00000-0 -17041-1 0  9996,2 53781  53.2172 356.8015 0002022  38.0856  59.7842 15.49740878  8556,6795.62,92.919,418.86,416.111,0.0
53781.0,STARLINK-4462,PAYLOAD,2022-11-05 06:00:00,15.49111284,0.0001822,53.217,355.2093,32.6192,125.5498,-0.022909,-0.0115696,0.0,0 STARLINK-4462,1 53781U 22111J   22309.25001157 -.01156960  00000-0 -22909-1 0  9991,2 53781  53.2170 355.2093 0001822  32.6192 125.5498 15.49111284  8601,6797.462,92.957,420.565,418.088,0.0
53781.0,STARLINK-4462,PAYLOAD,2022-11-05 14:00:01,15.48303606,0.0001738,53.2171,353.621,43.752,173.9524,-0.023741,-0.0116454,0.0,0 STARLINK-4462,1 53781U 22111J   22309.58335648 -.01164540  00000-0 -23741-1 0  9990,2 53781  53.2171 353.6210 0001738  43.7520 173.9524 15.48303606  1306,6799.825,93.005,422.872,420.509,0.0
53781.0,STARLINK-4462,PAYLOAD,2022-11-05 22:00:01,15.47439651,0.0001578,53.2173,352.031,36.6674,239.5594,-0.022906,-0.01080659,0.0,0 STARLINK-4462,1 53781U 22111J   22309.91668981 -.01080659  00000-0 -22906-1 0  9996,2 53781  53.2173 352.0310 0001578  36.6674 239.5594 15.47439651  1300,6802.356,93.057,425.294,423.148,0.0
53781.0,STARLINK-4462,PAYLOAD,2022-11-06 06:00:00,15.46697152,0.0001654,53.2171,350.4446,37.8132,295.8341,-0.025828,-0.01194719,0.0,0 STARLINK-4462,1 53781U 22111J   22310.25001157 -.01194719  00000-0 -25828-1 0  9990,2 53781  53.2171 350.4446 0001654  37.8132 295.8341 15.46697152  8759,6804.533,93.102,427.523,425.272,0.0
53781.0,STARLINK-4462,PAYLOAD,2022-11-06 14:00:01,15.45897637,0.0001713,53.217,348.8622,25.1687,5.009,-0.02691,-0.012093,0.0,0 STARLINK-4462,1 53781U 22111J   22310.58334491 -.01209300  00000-0 -26910-1 0  9992,2 53781  53.2170 348.8622 0001713  25.1687   5.0090 15.45897637  1301,6806.879,93.15,429.91,427.578,0.0
53781.0,STARLINK-4462,PAYLOAD,2022-11-07 00:00:00,15.44831405,0.0001942,53.2172,346.88199999999995,32.8536,156.6533,-0.026333,-0.01146515,0.0,0 STARLINK-4462,1 53781U 22111J   22311.00001157 -.01146515  00000-0 -26333-1 0  9997,2 53781  53.2172 346.8820 0001942  32.8536 156.6533 15.44831405  8877,6810.011,93.214,433.198,430.55300000000005,0.0
53781.0,STARLINK-4462,PAYLOAD,2022-11-07 22:00:00,15.42589594,0.0001716,53.2176,342.5415,38.0674,208.5259,-0.028219,-0.01138911,0.0,0 STARLINK-4462,1 53781U 22111J   22311.91667824 -.01138911  00000-0 -28219-1 0  9992,2 53781  53.2176 342.5415 0001716  38.0674 208.5259 15.42589594  1304,6816.607,93.35,439.642,437.302,0.0
53781.0,STARLINK-4462,PAYLOAD,2022-11-08 00:00:02,15.42413659,0.0004276,53.217,342.1479,277.0545,72.5955,-0.029543,-0.0118208,0.0,0 STARLINK-4462,1 53781U 22111J   22312.00002315 -.01182080  00000-0 -29543-1 0  9998,2 53781  53.2170 342.1479 0004276 277.0545  72.5955 15.42413659  9027,6817.125,93.36,441.905,436.075,0.0
53781.0,STARLINK-4462,PAYLOAD,2022-11-08 10:00:01,15.41370619,0.0002032,53.2175,340.1821,30.3992,113.3679,-0.029485,-0.01141971,0.0,0 STARLINK-4462,1 53781U 22111J   22312.41668981 -.01141971  00000-0 -29485-1 0  9999,2 53781  53.2175 340.1821 0002032  30.3992 113.3679 15.41370619  9096,6820.2,93.423,443.451,440.679,0.0
53781.0,STARLINK-4462,PAYLOAD,2022-11-08 14:00:01,15.41028741,0.0001565999999999,53.2166,339.3965,41.2889,307.5942,-0.03224,-0.0122589,0.0,0 STARLINK-4462,1 53781U 22111J   22312.58334491 -.01225890  00000-0 -32240-1 0  9999,2 53781  53.2166 339.3965 0001566  41.2889 307.5942 15.41028741  1304,6821.209,93.444,444.142,442.006,0.0
53781.0,STARLINK-4462,PAYLOAD,2022-11-08 22:00:00,15.4014625,0.0001611,53.217,337.8238,35.5821,3.0344,-0.030554,-0.01136372,0.0,0 STARLINK-4462,1 53781U 22111J   22312.91667824 -.01136372  00000-0 -30554-1 0  9997,2 53781  53.2170 337.8238 0001611  35.5821   3.0344 15.40146250  1307,6823.814,93.498,446.779,444.58,0.0
53781.0,STARLINK-4462,PAYLOAD,2022-11-09 06:00:00,15.3935978,0.0001465,53.2169,336.2555,50.0902,37.2312,-0.032489,-0.01173614,0.0,0 STARLINK-4462,1 53781U 22111J   22313.25001157 -.01173614  00000-0 -32489-1 0  9995,2 53781  53.2169 336.2555 0001465  50.0902  37.2312 15.39359780  9224,6826.138000000001,93.545,449.003,447.003,0.0
53781.0,STARLINK-4462,PAYLOAD,2022-11-09 14:00:01,15.38540735,0.0001708,53.2164,334.6897,43.5908,91.472,-0.0330839999999999,-0.01164216,0.0,0 STARLINK-4462,1 53781U 22111J   22313.58334491 -.01164216  00000-0 -33084-1 0  9991,2 53781  53.2164 334.6897 0001708  43.5908  91.4720 15.38540735  1300,6828.561,93.595,451.592,449.259,0.0
53781.0,STARLINK-4462,PAYLOAD,2022-11-09 22:00:01,15.37722759,0.0001701,53.2168,333.1230000000001,43.6865,138.2067,-0.033837,-0.0115962,0.0,0 STARLINK-4462,1 53781U 22111J   22313.91668981 -.01159620  00000-0 -33837-1 0  9991,2 53781  53.2168 333.1230 0001701  43.6865 138.2067 15.37722759  1306,6830.982,93.645,454.009,451.685,0.0
53781.0,STARLINK-4462,PAYLOAD,2022-11-10 14:00:01,15.36158001,0.0001538,53.2162,330.0004,38.8481,233.5391,-0.038365,-0.01241059,0.0,0 STARLINK-4462,1 53781U 22111J   22314.58334491 -.01241059  00000-0 -38365-1 0  9990,2 53781  53.2162 330.0004 0001538  38.8481 233.5391 15.36158001  1304,6835.62,93.74,458.536,456.434,0.0
53781.0,STARLINK-4462,PAYLOAD,2022-11-10 22:00:00,15.35264562,0.0001474,53.2172,328.4391,42.9685,273.29,-0.035828,-0.01135862,0.0,0 STARLINK-4462,1 53781U 22111J   22314.91667824 -.01135862  00000-0 -35828-1 0  9991,2 53781  53.2172 328.4391 0001474  42.9685 273.2900 15.35264562  9478,6838.272,93.795,461.145,459.129,0.0
53781.0,STARLINK-4462,PAYLOAD,2022-11-11 14:00:01,15.33657224,0.00016,53.2164,325.3284,36.4293,4.5421,-0.038659,-0.01161667,0.0,0 STARLINK-4462,1 53781U 22111J   22315.58334491 -.01161667  00000-0 -38659-1 0  9993,2 53781  53.2164 325.3284 0001600  36.4293   4.5421 15.33657224  1306,6843.049,93.893,466.009,463.819,0.0
53781.0,STARLINK-4462,PAYLOAD,2022-11-11 16:00:01,15.33439205,0.0001725,53.2168,324.9391,41.833,99.5265,-0.03827,-0.01143755,0.0,0 STARLINK-4462,1 53781U 22111J   22315.66668981 -.01143755  00000-0 -38270-1 0  9993,2 53781  53.2168 324.9391 0001725  41.8330  99.5265 15.33439205  9590,6843.696999999999,93.907,466.74300000000005,464.382,0.0
53781.0,STARLINK-4462,PAYLOAD,2022-11-11 22:00:00,15.32838814,0.0001681,53.2169,323.7733,36.9465,44.9245,-0.039509,-0.0115717999999999,0.0,0 STARLINK-4462,1 53781U 22111J   22315.91667824 -.01157180  00000-0 -39509-1 0  9999,2 53781  53.2169 323.7733 0001681  36.9465  44.9245 15.32838814  1304,6845.484,93.943,468.5,466.199,0.0
53781.0,STARLINK-4462,PAYLOAD,2022-11-12 14:00:01,15.31213718,0.0001766,53.2166,320.6737,41.4632,119.2629,-0.041661,-0.01159088,0.0,0 STARLINK-4462,1 53781U 22111J   22316.58334491 -.01159088  00000-0 -41661-1 0  9995,2 53781  53.2166 320.6737 0001766  41.4632 119.2629 15.31213718  9738,6850.3269999999975,94.043,473.402,470.982,0.0
53781.0,STARLINK-4462,PAYLOAD,2022-11-12 22:00:00,15.30403088,0.000175,53.2169,319.1245,41.0109,157.6768,-0.042932,-0.01164039,0.0,0 STARLINK-4462,1 53781U 22111J   22316.91667824 -.01164039  00000-0 -42932-1 0  9995,2 53781  53.2169 319.1245 0001750  41.0109 157.6768 15.30403088  1301,6852.746,94.093,475.81,473.412,0.0
